GSAT0101 (GALILEO-PFM)  
1 37846U 11060A   24310.50364337 -.00000068  00000+0  00000+0 0  9990
2 37846  57.1216 357.7133 0001516 300.9929  59.0605  1.70475818 81089
GSAT0102 (GALILEO-FM2)  
1 37847U 11060B   24309.25705340 -.00000070  00000+0  00000+0 0  9997
2 37847  57.1217 357.7474 0002883 298.9491  61.4786  1.70475465 81071
GSAT0103 (GALILEO-FM3)  
1 38857U 12055A   24309.95643705  .00000072  00000+0  00000+0 0  9998
2 38857  55.4727 117.7350 0002078 248.8202 111.1686  1.70473557 74969
GSAT0201 (GALILEO 5)    
1 40128U 14050A   24310.84207854 -.00000030  00000+0  00000+0 0  9995
2 40128  49.5136 297.3598 1614710 156.7711 211.4535  1.85519547 67409
GSAT0202 (GALILEO 6)    
1 40129U 14050B   24311.09984160 -.00000028  00000+0  00000+0 0  9993
2 40129  49.5297 296.4283 1614049 157.5743 210.3845  1.85520316 69576
GSAT0203 (GALILEO 7)    
1 40544U 15017A   24311.45568509 -.00000067  00000+0  00000+0 0  9996
2 40544  56.9166 357.6022 0005731 254.8213 105.1816  1.70476137 59189
GSAT0204 (GALILEO 8)    
1 40545U 15017B   24309.95052851 -.00000069  00000+0  00000+0 0  9999
2 40545  56.9229 357.6592 0005712 244.8180 115.1915  1.70475682 22201
GSAT0205 (GALILEO 9)    
1 40889U 15045A   24310.30537633  .00000012  00000+0  00000+0 0  9995
2 40889  55.1588 237.8729 0004643  10.6864 349.3469  1.70472895 56971
GSAT0206 (GALILEO 10)   
1 40890U 15045B   24311.11265984  .00000013  00000+0  00000+0 0  9995
2 40890  55.1563 237.8458 0003031  17.1394 342.8969  1.70472904 57015
GSAT0209 (GALILEO 12)   
1 41174U 15079A   24310.69553769  .00000073  00000+0  00000+0 0  9997
2 41174  55.4949 117.4254 0001976 356.9301   3.0781  1.70474332 54749
GSAT0208 (GALILEO 11)   
1 41175U 15079B   24309.15564930  .00000072  00000+0  00000+0 0  9998
2 41175  55.4888 117.4650 0001563  13.9345 346.0823  1.70474201 55138
GSAT0211 (GALILEO 14)   
1 41549U 16030A   24311.03840519  .00000013  00000+0  00000+0 0  9996
2 41549  55.3051 237.8743 0003423 359.2997   0.7257  1.70473008 52642
GSAT0210 (GALILEO 13)   
1 41550U 16030B   24310.70981189  .00000013  00000+0  00000+0 0  9990
2 41550  55.3044 237.8816 0002305 248.0032 111.9973  1.70473435 52633
GSAT0207 (GALILEO 15)   
1 41859U 16069A   24309.81591158  .00000071  00000+0  00000+0 0  9991
2 41859  55.1579 117.4168 0001676 321.7339  38.2649  1.70474288 49351
GSAT0212 (GALILEO 16)   
1 41860U 16069B   24309.67005579  .00000071  00000+0  00000+0 0  9994
2 41860  55.1555 117.4168 0002149  37.4832 322.5428  1.70474459 49604
GSAT0213 (GALILEO 17)   
1 41861U 16069C   24311.21153950  .00000073  00000+0  00000+0 0  9997
2 41861  55.1578 117.3811 0001698 268.2485  91.7416  1.70474761 49620
GSAT0214 (GALILEO 18)   
1 41862U 16069D   24309.59720307  .00000071  00000+0  00000+0 0  9990
2 41862  55.1554 117.4192 0000761 264.5664  95.4361  1.70474400 49592
GSAT0215 (GALILEO 19)   
1 43055U 17079A   24309.50021408  .00000009  00000+0  00000+0 0  9996
2 43055  55.2828 237.7365 0002049 296.1085  63.8899  1.70473700 42938
GSAT0216 (GALILEO 20)   
1 43056U 17079B   24310.37840048  .00000012  00000+0  00000+0 0  9997
2 43056  55.2827 237.7123 0003507 296.6585  63.3296  1.70473826 42968
GSAT0217 (GALILEO 21)   
1 43057U 17079C   24308.83915564  .00000006  00000+0  00000+0 0  9995
2 43057  55.2821 237.7531 0003280 311.6762  48.3110  1.70473875 42927
GSAT0218 (GALILEO 22)   
1 43058U 17079D   24309.64579588  .00000010  00000+0  00000+0 0  9993
2 43058  55.2810 237.7285 0004094 286.8924  73.0832  1.70473835 42965
GSAT0221 (GALILEO 25)   
1 43564U 18060A   24310.72012578 -.00000067  00000+0  00000+0 0  9991
2 43564  57.2964 357.6583 0005621 268.8397  91.1639  1.70476060 39137
GSAT0222 (GALILEO 26)   
1 43565U 18060B   24310.93884444 -.00000067  00000+0  00000+0 0  9994
2 43565  57.3002 357.6545 0005485 245.5012 114.5092  1.70475777 39186
GSAT0219 (GALILEO 23)   
1 43566U 18060C   24309.98735216 -.00000068  00000+0  00000+0 0  9991
2 43566  57.3011 357.6819 0003071 273.9342  86.0999  1.70476083 39147
GSAT0220 (GALILEO 24)   
1 43567U 18060D   24310.20807345 -.00000068  00000+0  00000+0 0  9992
2 43567  57.2994 357.6768 0005461 268.7134  91.2928  1.70476076 39137
GSAT0223 (GALILEO 27)   
1 49809U 21116A   24310.05718646 -.00000068  00000+0  00000+0 0  9991
2 49809  57.2894 357.5743 0004154 229.3143 128.6205  1.70476197 18138
GSAT0224 (GALILEO 28)   
1 49810U 21116B   24308.12328456 -.00000073  00000+0  00000+0 0  9990
2 49810  57.2907 357.6249 0003369 227.4109 136.1695  1.70476398 18135
GSAT0225 (GALILEO 29)   
1 59598U 24079A   24310.47992345  .00000071  00000+0  00000+0 0  9997
2 59598  54.7826 117.5547 0002940 162.9416 197.8973  1.70474717  3289
GSAT0227 (GALILEO 30)   
1 59600U 24079C   24310.07532894  .00000071  00000+0  00000+0 0  9996
2 59600  54.7694 117.5657 0003839 115.4106 244.6399  1.70474592  3324
GSAT0232 (GALILEO 32)   
1 61182U 24167A   24301.00687480 -.00000036  00000+0  00000+0 0  9999
2 61182  55.3980 237.7111 0016456 274.7209  85.0739  1.73176900   674
GSAT0226 (GALILEO 31)   
1 61183U 24167B   24301.95071725 -.00000035  00000+0  00000+0 0  9992
2 61183  55.3944 237.7060 0033143  97.6119 262.7460  1.71381502   671
